STARLINK-36427          
1 67333U 26002AE  26016.91668981 -.01692092  00000+0 -60387-2 0  9991
2 67333  42.9955 263.4456 0001742 277.1907 113.5869 15.90639297  3158
STARLINK-35343          
1 67334U 26003A   26016.91668981 -.01284264  48956-3 -32648-2 0  9996
2 67334  42.9980 167.7007 0001778 273.2071  24.7785 15.94564524  2291
STARLINK-36486          
1 67335U 26003B   26016.91668981 -.01282420  48849-3 -32525-2 0  9994
2 67335  42.9981 167.6974 0001718 271.9499  27.4227 15.94607945  2351
STARLINK-36480          
1 67336U 26003C   26016.91668981 -.01285547  49101-3 -32482-2 0  9992
2 67336  42.9982 167.6927 0001734 273.3484  27.8961 15.94678207  2357
STARLINK-36410          
1 67337U 26003D   26016.91668981 -.01298564  50057-3 -32667-2 0  9993
2 67337  42.9982 167.6878 0001772 274.2563  28.8479 15.94761735  2357
STARLINK-36413          
1 67338U 26003E   26016.91668981 -.01294221  49778-3 -32463-2 0  9992
2 67338  42.9982 167.6836 0001637 272.1243  32.7174 15.94815680  2359
STARLINK-36451          
1 67339U 26003F   26016.91668981 -.01296672  49984-3 -32408-2 0  9993
2 67339  42.9982 167.6787 0001691 275.5579  31.0788 15.94882738  2355
STARLINK-36339          
1 67340U 26003G   26016.91668981 -.01308981  50900-3 -32567-2 0  9998
2 67340  42.9981 167.6735 0001664 273.2368  35.5812 15.94969112  2359
STARLINK-36453          
1 67341U 26003H   26016.91668981 -.01318659  51634-3 -32664-2 0  9995
2 67341  42.9983 167.6679 0001734 274.2349  36.6853 15.95051866  2353
STARLINK-36432          
1 67342U 26003J   26016.91668981 -.01320610  51812-3 -32583-2 0  9994
2 67342  42.9982 167.6634 0001843 273.4935  39.3266 15.95125496  2345
STARLINK-36458          
1 67343U 26003K   26016.91668981 -.01327056  52308-3 -32636-2 0  9996
2 67343  42.9982 167.6595 0001620 274.0582  40.3261 15.95187219  2359
STARLINK-36422          
1 67344U 26003L   26016.91668981 -.01339835  53281-3 -32799-2 0  9996
2 67344  42.9980 167.6538 0001708 271.4477  45.0946 15.95274149  2346
