CCSDS_OMM_VERS = 2.0
CREATION_DATE  = 
ORIGINATOR     = 

OBJECT_NAME    = STARLINK-36427
OBJECT_ID      = 2026-002AE
CENTER_NAME    = EARTH
REF_FRAME      = TEME
TIME_SYSTEM    = UTC
MEAN_ELEMENT_THEORY = SGP/SGP4

EPOCH          = 2026-01-16T22:00:01.999584
MEAN_MOTION    = 15.90639297
ECCENTRICITY   = .00017424
INCLINATION    = 42.9955
RA_OF_ASC_NODE = 263.4456
ARG_OF_PERICENTER = 277.1907
MEAN_ANOMALY   = 113.5869

EPHEMERIS_TYPE = 0
CLASSIFICATION_TYPE = U
NORAD_CAT_ID   = 67333
ELEMENT_SET_NO = 999
REV_AT_EPOCH   = 315
BSTAR          = -.60386727E-2
MEAN_MOTION_DOT = -.1692092E-1
MEAN_MOTION_DDOT = 0

CCSDS_OMM_VERS = 2.0
CREATION_DATE  = 
ORIGINATOR     = 

OBJECT_NAME    = STARLINK-35343
OBJECT_ID      = 2026-003A
CENTER_NAME    = EARTH
REF_FRAME      = TEME
TIME_SYSTEM    = UTC
MEAN_ELEMENT_THEORY = SGP/SGP4

EPOCH          = 2026-01-16T22:00:01.999584
MEAN_MOTION    = 15.94564524
ECCENTRICITY   = .00017788
INCLINATION    = 42.9980
RA_OF_ASC_NODE = 167.7007
ARG_OF_PERICENTER = 273.2071
MEAN_ANOMALY   = 24.7785

EPHEMERIS_TYPE = 0
CLASSIFICATION_TYPE = U
NORAD_CAT_ID   = 67334
ELEMENT_SET_NO = 999
REV_AT_EPOCH   = 229
BSTAR          = -.32647651E-2
MEAN_MOTION_DOT = -.1284264E-1
MEAN_MOTION_DDOT = .48956225E-3

CCSDS_OMM_VERS = 2.0
CREATION_DATE  = 
ORIGINATOR     = 

OBJECT_NAME    = STARLINK-36486
OBJECT_ID      = 2026-003B
CENTER_NAME    = EARTH
REF_FRAME      = TEME
TIME_SYSTEM    = UTC
MEAN_ELEMENT_THEORY = SGP/SGP4

EPOCH          = 2026-01-16T22:00:01.999584
MEAN_MOTION    = 15.94607945
ECCENTRICITY   = .00017188
INCLINATION    = 42.9981
RA_OF_ASC_NODE = 167.6974
ARG_OF_PERICENTER = 271.9499
MEAN_ANOMALY   = 27.4227

EPHEMERIS_TYPE = 0
CLASSIFICATION_TYPE = U
NORAD_CAT_ID   = 67335
ELEMENT_SET_NO = 999
REV_AT_EPOCH   = 235
BSTAR          = -.32524696E-2
MEAN_MOTION_DOT = -.128242E-1
MEAN_MOTION_DDOT = .4884879E-3

CCSDS_OMM_VERS = 2.0
CREATION_DATE  = 
ORIGINATOR     = 

OBJECT_NAME    = STARLINK-36480
OBJECT_ID      = 2026-003C
CENTER_NAME    = EARTH
REF_FRAME      = TEME
TIME_SYSTEM    = UTC
MEAN_ELEMENT_THEORY = SGP/SGP4

EPOCH          = 2026-01-16T22:00:01.999584
MEAN_MOTION    = 15.94678207
ECCENTRICITY   = .00017342
INCLINATION    = 42.9982
RA_OF_ASC_NODE = 167.6927
ARG_OF_PERICENTER = 273.3484
MEAN_ANOMALY   = 27.8961

EPHEMERIS_TYPE = 0
CLASSIFICATION_TYPE = U
NORAD_CAT_ID   = 67336
ELEMENT_SET_NO = 999
REV_AT_EPOCH   = 235
BSTAR          = -.32482015E-2
MEAN_MOTION_DOT = -.1285547E-1
MEAN_MOTION_DDOT = .49101414E-3

CCSDS_OMM_VERS = 2.0
CREATION_DATE  = 
ORIGINATOR     = 

OBJECT_NAME    = STARLINK-36410
OBJECT_ID      = 2026-003D
CENTER_NAME    = EARTH
REF_FRAME      = TEME
TIME_SYSTEM    = UTC
MEAN_ELEMENT_THEORY = SGP/SGP4

EPOCH          = 2026-01-16T22:00:01.999584
MEAN_MOTION    = 15.94761735
ECCENTRICITY   = .00017726
INCLINATION    = 42.9982
RA_OF_ASC_NODE = 167.6878
ARG_OF_PERICENTER = 274.2563
MEAN_ANOMALY   = 28.8479

EPHEMERIS_TYPE = 0
CLASSIFICATION_TYPE = U
NORAD_CAT_ID   = 67337
ELEMENT_SET_NO = 999
REV_AT_EPOCH   = 235
BSTAR          = -.32667383E-2
MEAN_MOTION_DOT = -.1298564E-1
MEAN_MOTION_DDOT = .50056847E-3

CCSDS_OMM_VERS = 2.0
CREATION_DATE  = 
ORIGINATOR     = 

OBJECT_NAME    = STARLINK-36413
OBJECT_ID      = 2026-003E
CENTER_NAME    = EARTH
REF_FRAME      = TEME
TIME_SYSTEM    = UTC
MEAN_ELEMENT_THEORY = SGP/SGP4

EPOCH          = 2026-01-16T22:00:01.999584
MEAN_MOTION    = 15.94815680
ECCENTRICITY   = .00016375
INCLINATION    = 42.9982
RA_OF_ASC_NODE = 167.6836
ARG_OF_PERICENTER = 272.1243
MEAN_ANOMALY   = 32.7174

EPHEMERIS_TYPE = 0
CLASSIFICATION_TYPE = U
NORAD_CAT_ID   = 67338
ELEMENT_SET_NO = 999
REV_AT_EPOCH   = 235
BSTAR          = -.32463326E-2
MEAN_MOTION_DOT = -.1294221E-1
MEAN_MOTION_DDOT = .49777788E-3

CCSDS_OMM_VERS = 2.0
CREATION_DATE  = 
ORIGINATOR     = 

OBJECT_NAME    = STARLINK-36451
OBJECT_ID      = 2026-003F
CENTER_NAME    = EARTH
REF_FRAME      = TEME
TIME_SYSTEM    = UTC
MEAN_ELEMENT_THEORY = SGP/SGP4

EPOCH          = 2026-01-16T22:00:01.999584
MEAN_MOTION    = 15.94882738
ECCENTRICITY   = .00016913
INCLINATION    = 42.9982
RA_OF_ASC_NODE = 167.6787
ARG_OF_PERICENTER = 275.5579
MEAN_ANOMALY   = 31.0788

EPHEMERIS_TYPE = 0
CLASSIFICATION_TYPE = U
NORAD_CAT_ID   = 67339
ELEMENT_SET_NO = 999
REV_AT_EPOCH   = 235
BSTAR          = -.32408009E-2
MEAN_MOTION_DOT = -.1296672E-1
MEAN_MOTION_DDOT = .49983972E-3

CCSDS_OMM_VERS = 2.0
CREATION_DATE  = 
ORIGINATOR     = 

OBJECT_NAME    = STARLINK-36339
OBJECT_ID      = 2026-003G
CENTER_NAME    = EARTH
REF_FRAME      = TEME
TIME_SYSTEM    = UTC
MEAN_ELEMENT_THEORY = SGP/SGP4

EPOCH          = 2026-01-16T22:00:01.999584
MEAN_MOTION    = 15.94969112
ECCENTRICITY   = .00016641
INCLINATION    = 42.9981
RA_OF_ASC_NODE = 167.6735
ARG_OF_PERICENTER = 273.2368
MEAN_ANOMALY   = 35.5812

EPHEMERIS_TYPE = 0
CLASSIFICATION_TYPE = U
NORAD_CAT_ID   = 67340
ELEMENT_SET_NO = 999
REV_AT_EPOCH   = 235
BSTAR          = -.32567341E-2
MEAN_MOTION_DOT = -.1308981E-1
MEAN_MOTION_DDOT = .5089988E-3

CCSDS_OMM_VERS = 2.0
CREATION_DATE  = 
ORIGINATOR     = 

OBJECT_NAME    = STARLINK-36453
OBJECT_ID      = 2026-003H
CENTER_NAME    = EARTH
REF_FRAME      = TEME
TIME_SYSTEM    = UTC
MEAN_ELEMENT_THEORY = SGP/SGP4

EPOCH          = 2026-01-16T22:00:01.999584
MEAN_MOTION    = 15.95051866
ECCENTRICITY   = .00017345
INCLINATION    = 42.9983
RA_OF_ASC_NODE = 167.6679
ARG_OF_PERICENTER = 274.2349
MEAN_ANOMALY   = 36.6853

EPHEMERIS_TYPE = 0
CLASSIFICATION_TYPE = U
NORAD_CAT_ID   = 67341
ELEMENT_SET_NO = 999
REV_AT_EPOCH   = 235
BSTAR          = -.32664361E-2
MEAN_MOTION_DOT = -.1318659E-1
MEAN_MOTION_DDOT = .5163377E-3

CCSDS_OMM_VERS = 2.0
CREATION_DATE  = 
ORIGINATOR     = 

OBJECT_NAME    = STARLINK-36432
OBJECT_ID      = 2026-003J
CENTER_NAME    = EARTH
REF_FRAME      = TEME
TIME_SYSTEM    = UTC
MEAN_ELEMENT_THEORY = SGP/SGP4

EPOCH          = 2026-01-16T22:00:01.999584
MEAN_MOTION    = 15.95125496
ECCENTRICITY   = .00018436
INCLINATION    = 42.9982
RA_OF_ASC_NODE = 167.6634
ARG_OF_PERICENTER = 273.4935
MEAN_ANOMALY   = 39.3266

EPHEMERIS_TYPE = 0
CLASSIFICATION_TYPE = U
NORAD_CAT_ID   = 67342
ELEMENT_SET_NO = 999
REV_AT_EPOCH   = 234
BSTAR          = -.32582797E-2
MEAN_MOTION_DOT = -.132061E-1
MEAN_MOTION_DDOT = .51812017E-3

CCSDS_OMM_VERS = 2.0
CREATION_DATE  = 
ORIGINATOR     = 

OBJECT_NAME    = STARLINK-36458
OBJECT_ID      = 2026-003K
CENTER_NAME    = EARTH
REF_FRAME      = TEME
TIME_SYSTEM    = UTC
MEAN_ELEMENT_THEORY = SGP/SGP4

EPOCH          = 2026-01-16T22:00:01.999584
MEAN_MOTION    = 15.95187219
ECCENTRICITY   = .00016208
INCLINATION    = 42.9982
RA_OF_ASC_NODE = 167.6595
ARG_OF_PERICENTER = 274.0582
MEAN_ANOMALY   = 40.3261

EPHEMERIS_TYPE = 0
CLASSIFICATION_TYPE = U
NORAD_CAT_ID   = 67343
ELEMENT_SET_NO = 999
REV_AT_EPOCH   = 235
BSTAR          = -.32635945E-2
MEAN_MOTION_DOT = -.1327056E-1
MEAN_MOTION_DDOT = .52308418E-3

CCSDS_OMM_VERS = 2.0
CREATION_DATE  = 
ORIGINATOR     = 

OBJECT_NAME    = STARLINK-36422
OBJECT_ID      = 2026-003L
CENTER_NAME    = EARTH
REF_FRAME      = TEME
TIME_SYSTEM    = UTC
MEAN_ELEMENT_THEORY = SGP/SGP4

EPOCH          = 2026-01-16T22:00:01.999584
MEAN_MOTION    = 15.95274149
ECCENTRICITY   = .00017083
INCLINATION    = 42.9980
RA_OF_ASC_NODE = 167.6538
ARG_OF_PERICENTER = 271.4477
MEAN_ANOMALY   = 45.0946

EPHEMERIS_TYPE = 0
CLASSIFICATION_TYPE = U
NORAD_CAT_ID   = 67344
ELEMENT_SET_NO = 999
REV_AT_EPOCH   = 234
BSTAR          = -.32798805E-2
MEAN_MOTION_DOT = -.1339835E-1
MEAN_MOTION_DDOT = .53281121E-3

